[{"OBJECT_NAME":"GPS BIIR-2  (PRN 13)","OBJECT_ID":"1997-035A","EPOCH":"2026-03-14T11:18:56.431008","MEAN_MOTION":2.00564034,"ECCENTRICITY":0.00982168,"INCLINATION":55.9413,"RA_OF_ASC_NODE":102.2771,"ARG_OF_PERICENTER":56.2098,"MEAN_ANOMALY":304.7946,"EPHEMERIS_TYPE":0,"CLASSIFICATION_TYPE":"U","NORAD_CAT_ID":24876,"ELEMENT_SET_NO":999,"REV_AT_EPOCH":21005,"BSTAR":0,"MEAN_MOTION_DOT":4.6e-7,"MEAN_MOTION_DDOT":0},{"OBJECT_NAME":"GPS BIIR-5  (PRN 22)","OBJECT_ID":"2000-040A","EPOCH":"2026-03-14T13:43:49.207584","MEAN_MOTION":2.00569037,"ECCENTRICITY":0.01224688,"INCLINATION":54.873,"RA_OF_ASC_NODE":218.9181,"ARG_OF_PERICENTER":302.5344,"MEAN_ANOMALY":64.4987,"EPHEMERIS_TYPE":0,"CLASSIFICATION_TYPE":"U","NORAD_CAT_ID":26407,"ELEMENT_SET_NO":999,"REV_AT_EPOCH":18805,"BSTAR":0,"MEAN_MOTION_DOT":1.8e-7,"MEAN_MOTION_DDOT":0},{"OBJECT_NAME":"GPS BIIR-8  (PRN 16)","OBJECT_ID":"2003-005A","EPOCH":"2026-03-14T22:44:30.375456","MEAN_MOTION":2.00565678,"ECCENTRICITY":0.01486778,"INCLINATION":54.9048,"RA_OF_ASC_NODE":218.7109,"ARG_OF_PERICENTER":52.792,"MEAN_ANOMALY":1.1555,"EPHEMERIS_TYPE":0,"CLASSIFICATION_TYPE":"U","NORAD_CAT_ID":27663,"ELEMENT_SET_NO":999,"REV_AT_EPOCH":16942,"BSTAR":0,"MEAN_MOTION_DOT":1.6e-7,"MEAN_MOTION_DDOT":0},{"OBJECT_NAME":"GPS BIIR-11 (PRN 19)","OBJECT_ID":"2004-009A","EPOCH":"2026-03-14T09:06:01.528704","MEAN_MOTION":2.00557837,"ECCENTRICITY":0.01114344,"INCLINATION":54.908,"RA_OF_ASC_NODE":279.5164,"ARG_OF_PERICENTER":169.3433,"MEAN_ANOMALY":349.7979,"EPHEMERIS_TYPE":0,"CLASSIFICATION_TYPE":"U","NORAD_CAT_ID":28190,"ELEMENT_SET_NO":999,"REV_AT_EPOCH":16104,"BSTAR":0,"MEAN_MOTION_DOT":2.8e-7,"MEAN_MOTION_DDOT":0},{"OBJECT_NAME":"GPS BIIR-13 (PRN 02)","OBJECT_ID":"2004-045A","EPOCH":"2026-03-14T19:06:24.298848","MEAN_MOTION":2.00573977,"ECCENTRICITY":0.01706878,"INCLINATION":55.1887,"RA_OF_ASC_NODE":328.7004,"ARG_OF_PERICENTER":313.2377,"MEAN_ANOMALY":210.9067,"EPHEMERIS_TYPE":0,"CLASSIFICATION_TYPE":"U","NORAD_CAT_ID":28474,"ELEMENT_SET_NO":999,"REV_AT_EPOCH":15653,"BSTAR":0,"MEAN_MOTION_DOT":-6.2e-7,"MEAN_MOTION_DDOT":0},{"OBJECT_NAME":"GPS BIIRM-1 (PRN 17)","OBJECT_ID":"2005-038A","EPOCH":"2026-03-14T09:43:57.925920","MEAN_MOTION":2.00572369,"ECCENTRICITY":0.01285418,"INCLINATION":54.9554,"RA_OF_ASC_NODE":277.0011,"ARG_OF_PERICENTER":295.4769,"MEAN_ANOMALY":267.0042,"EPHEMERIS_TYPE":0,"CLASSIFICATION_TYPE":"U","NORAD_CAT_ID":28874,"ELEMENT_SET_NO":999,"REV_AT_EPOCH":14993,"BSTAR":0,"MEAN_MOTION_DOT":3.2e-7,"MEAN_MOTION_DDOT":0},{"OBJECT_NAME":"INMARSAT 4-F2 (SOUTHPAN/PRN 122)","OBJECT_ID":"2005-044A","EPOCH":"2026-03-14T19:36:51.614784","MEAN_MOTION":1.00276549,"ECCENTRICITY":0.00027621,"INCLINATION":4.97,"RA_OF_ASC_NODE":43.7893,"ARG_OF_PERICENTER":343.0106,"MEAN_ANOMALY":223.3357,"EPHEMERIS_TYPE":0,"CLASSIFICATION_TYPE":"U","NORAD_CAT_ID":28899,"ELEMENT_SET_NO":999,"REV_AT_EPOCH":7457,"BSTAR":0,"MEAN_MOTION_DOT":-2.57e-6,"MEAN_MOTION_DDOT":0},{"OBJECT_NAME":"GPS BIIRM-2 (PRN 31)","OBJECT_ID":"2006-042A","EPOCH":"2026-03-13T06:53:42.401184","MEAN_MOTION":2.00575008,"ECCENTRICITY":0.01065834,"INCLINATION":54.6981,"RA_OF_ASC_NODE":155.1475,"ARG_OF_PERICENTER":52.9845,"MEAN_ANOMALY":319.1322,"EPHEMERIS_TYPE":0,"CLASSIFICATION_TYPE":"U","NORAD_CAT_ID":29486,"ELEMENT_SET_NO":999,"REV_AT_EPOCH":14247,"BSTAR":0,"MEAN_MOTION_DOT":-1.4e-7,"MEAN_MOTION_DDOT":0},{"OBJECT_NAME":"GPS BIIRM-3 (PRN 12)","OBJECT_ID":"2006-052A","EPOCH":"2026-03-11T16:37:48.789984","MEAN_MOTION":2.00552224,"ECCENTRICITY":0.0087716,"INCLINATION":54.9554,"RA_OF_ASC_NODE":217.8682,"ARG_OF_PERICENTER":89.5016,"MEAN_ANOMALY":271.4739,"EPHEMERIS_TYPE":0,"CLASSIFICATION_TYPE":"U","NORAD_CAT_ID":29601,"ELEMENT_SET_NO":999,"REV_AT_EPOCH":14145,"BSTAR":0,"MEAN_MOTION_DOT":3.3e-7,"MEAN_MOTION_DDOT":0},{"OBJECT_NAME":"GPS BIIRM-4 (PRN 15)","OBJECT_ID":"2007-047A","EPOCH":"2026-03-13T23:50:57.660288","MEAN_MOTION":2.00560318,"ECCENTRICITY":0.01636875,"INCLINATION":54.0235,"RA_OF_ASC_NODE":83.9876,"ARG_OF_PERICENTER":86.0468,"MEAN_ANOMALY":275.875,"EPHEMERIS_TYPE":0,"CLASSIFICATION_TYPE":"U","NORAD_CAT_ID":32260,"ELEMENT_SET_NO":999,"REV_AT_EPOCH":13490,"BSTAR":0,"MEAN_MOTION_DOT":3.0e-7,"MEAN_MOTION_DDOT":0},{"OBJECT_NAME":"COSMOS 2433 (720)","OBJECT_ID":"2007-052A","EPOCH":"2026-03-14T03:00:53.294976","MEAN_MOTION":2.13104275,"ECCENTRICITY":0.00016336,"INCLINATION":65.6294,"RA_OF_ASC_NODE":319.1347,"ARG_OF_PERICENTER":271.6855,"MEAN_ANOMALY":88.3568,"EPHEMERIS_TYPE":0,"CLASSIFICATION_TYPE":"U","NORAD_CAT_ID":32275,"ELEMENT_SET_NO":999,"REV_AT_EPOCH":14303,"BSTAR":0,"MEAN_MOTION_DOT":-2.7e-7,"MEAN_MOTION_DDOT":0},{"OBJECT_NAME":"COSMOS 2432 (719)","OBJECT_ID":"2007-052B","EPOCH":"2026-03-14T09:02:33.929376","MEAN_MOTION":2.13103436,"ECCENTRICITY":0.00103908,"INCLINATION":65.6451,"RA_OF_ASC_NODE":319.2522,"ARG_OF_PERICENTER":332.5388,"MEAN_ANOMALY":164.3883,"EPHEMERIS_TYPE":0,"CLASSIFICATION_TYPE":"U","NORAD_CAT_ID":32276,"ELEMENT_SET_NO":999,"REV_AT_EPOCH":14306,"BSTAR":0,"MEAN_MOTION_DOT":-2.6e-7,"MEAN_MOTION_DDOT":0},{"OBJECT_NAME":"GPS BIIRM-5 (PRN 29)","OBJECT_ID":"2007-062A","EPOCH":"2026-03-13T01:25:28.658208","MEAN_MOTION":2.00554193,"ECCENTRICITY":0.00331869,"INCLINATION":55.1084,"RA_OF_ASC_NODE":278.0153,"ARG_OF_PERICENTER":160.7725,"MEAN_ANOMALY":12.4048,"EPHEMERIS_TYPE":0,"CLASSIFICATION_TYPE":"U","NORAD_CAT_ID":32384,"ELEMENT_SET_NO":999,"REV_AT_EPOCH":13358,"BSTAR":0,"MEAN_MOTION_DOT":2.9e-7,"MEAN_MOTION_DDOT":0},{"OBJECT_NAME":"COSMOS 2434 (721)","OBJECT_ID":"2007-065A","EPOCH":"2026-03-14T17:39:04.019616","MEAN_MOTION":2.13101414,"ECCENTRICITY":0.00033511,"INCLINATION":64.318,"RA_OF_ASC_NODE":195.0989,"ARG_OF_PERICENTER":68.6054,"MEAN_ANOMALY":289.5556,"EPHEMERIS_TYPE":0,"CLASSIFICATION_TYPE":"U","NORAD_CAT_ID":32393,"ELEMENT_SET_NO":999,"REV_AT_EPOCH":14175,"BSTAR":0,"MEAN_MOTION_DOT":1.0e-8,"MEAN_MOTION_DDOT":0},{"OBJECT_NAME":"COSMOS 2436 (723)","OBJECT_ID":"2007-065C","EPOCH":"2026-03-11T11:00:42.021216","MEAN_MOTION":2.13100266,"ECCENTRICITY":0.00173889,"INCLINATION":64.3265,"RA_OF_ASC_NODE":195.2806,"ARG_OF_PERICENTER":6.1321,"MEAN_ANOMALY":131.0155,"EPHEMERIS_TYPE":0,"CLASSIFICATION_TYPE":"U","NORAD_CAT_ID":32395,"ELEMENT_SET_NO":999,"REV_AT_EPOCH":14164,"BSTAR":0,"MEAN_MOTION_DOT":1.6e-7,"MEAN_MOTION_DDOT":0},{"OBJECT_NAME":"GPS BIIRM-6 (PRN 07)","OBJECT_ID":"2008-012A","EPOCH":"2026-03-13T09:54:44.053632","MEAN_MOTION":2.005696,"ECCENTRICITY":0.02075071,"INCLINATION":54.4828,"RA_OF_ASC_NODE":153.7522,"ARG_OF_PERICENTER":246.3415,"MEAN_ANOMALY":111.508,"EPHEMERIS_TYPE":0,"CLASSIFICATION_TYPE":"U","NORAD_CAT_ID":32711,"ELEMENT_SET_NO":999,"REV_AT_EPOCH":13183,"BSTAR":0,"MEAN_MOTION_DOT":-1.2e-7,"MEAN_MOTION_DDOT":0},{"OBJECT_NAME":"GPS BIIRM-8 (PRN 05)","OBJECT_ID":"2009-043A","EPOCH":"2026-03-14T03:21:01.123776","MEAN_MOTION":2.0055987,"ECCENTRICITY":0.00519138,"INCLINATION":56.1545,"RA_OF_ASC_NODE":31.1853,"ARG_OF_PERICENTER":80.7257,"MEAN_ANOMALY":99.4378,"EPHEMERIS_TYPE":0,"CLASSIFICATION_TYPE":"U","NORAD_CAT_ID":35752,"ELEMENT_SET_NO":999,"REV_AT_EPOCH":12145,"BSTAR":0,"MEAN_MOTION_DOT":-5.4e-7,"MEAN_MOTION_DDOT":0}]
